1 45160U 20008AF  22365.50612324 -.00000548  00000-0 -16069-2 0  9990
2 45160  87.8811 287.3890 0001967  83.9803 276.1548 13.10372751142855
1 45160U 20008AF  22365.73519617 -.00000551  00000-0 -16157-2 0  9998
2 45160  87.8810 287.3434 0001969  83.9218 276.2133 13.10372310142885
1 45160U 20008AF  22365.73519617 -.00000551  00000-0 -16157-2 0  9998
2 45160  87.8810 287.3434 0001969  83.9218 276.2133 13.10372310143370
1 45160U 20008AF  23001.49877180 -.00000463  00000-0 -13628-2 0  9993
2 45160  87.8810 287.1913 0001965  83.7434 276.3917 13.10372128142988
1 45160U 20008AF  23001.72784502 -.00000457  00000-0 -13459-2 0  9999
2 45160  87.8810 287.1456 0001966  83.6751 276.4600 13.10371648143013
1 45160U 20008AF  23002.03327574 -.00000439  00000-0 -12944-2 0  9994
2 45160  87.8810 287.0848 0001964  83.4605 276.6746 13.10371427143547
1 45160U 20008AF  23002.49142114 -.00000247  00000-0 -74388-3 0  9997
2 45160  87.8809 286.9935 0001969  83.4469 276.6882 13.10371787143116
1 45160U 20008AF  23003.17864120 -.00000165  00000-0 -51027-3 0  9995
2 45160  87.8810 286.8565 0001966  83.0767 277.0584 13.10370881143691
1 45160U 20008AF  23003.48407155 -.00000055  00000-0 -19405-3 0  9992
2 45160  87.8810 286.7957 0001967  82.9037 277.2314 13.10371390143244
1 45160U 20008AF  23004.47672233  .00000158  00000-0  41673-3 0  9997
2 45160  87.8810 286.5979 0001970  82.4415 277.6936 13.10371155143372
1 45160U 20008AF  23004.47672233  .00000158  00000-0  41673-3 0  9997
2 45160  87.8810 286.5979 0001970  82.4415 277.6936 13.10371155143866
1 45160U 20008AF  23005.46937323  .00000352  00000-0  97334-3 0  9992
2 45160  87.8810 286.4002 0002005  81.9952 278.1403 13.10371078143502
1 45160U 20008AF  23006.23294966  .00000464  00000-0  12915-2 0  9992
2 45160  87.8811 286.2480 0002004  81.4955 278.6399 13.10372230144093
1 45160U 20008AF  23006.46202271  .00000478  00000-0  13327-2 0  9998
2 45160  87.8811 286.2024 0001990  81.2766 278.8586 13.10372232143639
1 45160U 20008AF  23007.14924124  .00000592  00000-0  16589-2 0  9992
2 45160  87.8813 286.0654 0001991  81.4292 278.7061 13.10372627143720
1 45160U 20008AF  23007.53103006  .00000518  00000-0  14464-2 0  9991
2 45160  87.8814 285.9893 0001979  80.8512 279.2840 13.10372139143772
1 45160U 20008AF  23007.53103006  .00000518  00000-0  14464-2 0  9991
2 45160  87.8814 285.9893 0001979  80.8512 279.2840 13.10372139144267
1 45160U 20008AF  23008.52367628  .00000662  00000-0  18607-2 0  9996
2 45160  87.8813 285.7917 0001986  80.1628 279.9724 13.10374335143908
1 45160U 20008AF  23009.13453514  .00000721  00000-0  20291-2 0  9992
2 45160  87.8814 285.6701 0001963  79.5623 280.5726 13.10375178143985
1 45160U 20008AF  23009.13453514  .00000721  00000-0  20291-2 0  9992
2 45160  87.8814 285.6701 0001963  79.5623 280.5726 13.10375178144470
1 45160U 20008AF  23009.74539446  .00000624  00000-0  17501-2 0  9990
2 45160  87.8816 285.5485 0001938  78.9286 281.2059 13.10375207144065
1 45160U 20008AF  23010.27989476  .00000711  00000-0  20003-2 0  9990
2 45160  87.8814 285.4419 0001999  79.3467 280.7885 13.10376160144624
1 45160U 20008AF  23010.50896681  .00000619  00000-0  17379-2 0  9990
2 45160  87.8815 285.3963 0002002  79.3951 280.7402 13.10376152144167
1 45160U 20008AF  23011.50160928  .00000550  00000-0  15382-2 0  9995
2 45160  87.8815 285.1986 0002005  79.1346 281.0007 13.10377748144290
1 45160U 20008AF  23011.50160928  .00000550  00000-0  15382-2 0  9995
2 45160  87.8815 285.1986 0002005  79.1346 281.0007 13.10377748144784
1 45160U 20008AF  23011.73068150  .00000433  00000-0  12031-2 0  9992
2 45160  87.8817 285.1529 0002054  79.1528 280.9830 13.10377292144321
1 45160U 20008AF  23012.49425233  .00000270  00000-0  73707-3 0  9992
2 45160  87.8816 285.0009 0002030  78.5895 281.5460 13.10377850144423
1 45160U 20008AF  23013.02875202  .00000118  00000-0  30061-3 0  9994
2 45160  87.8817 284.8944 0002026  78.2156 281.9199 13.10378093144985
1 45160U 20008AF  23013.25782274  .00000068  00000-0  15977-3 0  9998
2 45160  87.8816 284.8488 0002031  78.1392 281.9963 13.10378659144521
1 45160U 20008AF  23014.25046469 -.00000087  00000-0 -28504-3 0  9991
2 45160  87.8815 284.6511 0002009  77.5162 282.6190 13.10377922145149
1 45160U 20008AF  23015.47218238 -.00000742  00000-0 -21611-2 0  9990
2 45160  87.8816 284.4077 0001997  76.6971 283.4379 13.10374617144817
1 45160U 20008AF  23015.47218238 -.00000742  00000-0 -21611-2 0  9990
2 45160  87.8816 284.4077 0001997  76.6971 283.4379 13.10374617145302
1 45160U 20008AF  23015.77761034 -.00000632  00000-0 -18481-2 0  9999
2 45160  87.8815 284.3470 0001979  76.5495 283.5853 13.10375266144855
1 45160U 20008AF  23016.23575445 -.00000672  00000-0 -19625-2 0  9995
2 45160  87.8814 284.2557 0001982  76.2900 283.8448 13.10374523144916
1 45160U 20008AF  23016.77025648 -.00000692  00000-0 -20177-2 0  9995
2 45160  87.8814 284.1493 0001968  76.0705 284.0642 13.10373373144987
1 45160U 20008AF  23016.77025648 -.00000692  00000-0 -20177-2 0  9995
2 45160  87.8814 284.1493 0001968  76.0705 284.0642 13.10373373145472
1 45160U 20008AF  23017.45747417 -.00000584  00000-0 -17106-2 0  9994
2 45160  87.8810 284.0121 0001968  75.6852 284.4493 13.10371690145077
1 45160U 20008AF  23018.29740697 -.00000607  00000-0 -17751-2 0  9992
2 45160  87.8810 283.8447 0001971  75.6656 284.4690 13.10371555145676
1 45160U 20008AF  23018.45012283 -.00000677  00000-0 -19746-2 0  9996
2 45160  87.8810 283.8143 0001968  75.6201 284.5145 13.10370794145200
1 45160U 20008AF  23018.75555288 -.00000524  00000-0 -15389-2 0  9996
2 45160  87.8810 283.7534 0001974  75.6263 284.5083 13.10370639145241
1 45160U 20008AF  23019.44277254 -.00000536  00000-0 -15711-2 0  9999
2 45160  87.8808 283.6166 0001977  75.5651 284.5696 13.10369785145331
1 45160U 20008AF  23019.44277254 -.00000536  00000-0 -15711-2 0  9999
2 45160  87.8808 283.6166 0001977  75.5651 284.5696 13.10369785145825
1 45160U 20008AF  23020.43542277 -.00000333  00000-0 -99020-3 0  9991
2 45160  87.8806 283.4190 0001949  74.9600 285.1743 13.10369546145469
1 45160U 20008AF  23020.74085534 -.00000446  00000-0 -13153-2 0  9990
2 45160  87.8804 283.3582 0001948  74.7742 285.3600 13.10368076145994
1 45160U 20008AF  23022.11529592 -.00000080  00000-0 -26640-3 0  9990
2 45160  87.8801 283.0844 0001945  74.5459 285.5883 13.10368168146177
1 45160U 20008AF  23023.41337928  .00000246  00000-0  66830-3 0  9991
2 45160  87.8802 282.8255 0001929  73.5329 286.6010 13.10368629146343
1 45160U 20008AF  23025.39868186  .00000553  00000-0  15485-2 0  9995
2 45160  87.8802 282.4299 0001911  73.4167 286.7170 13.10370358146112
1 45160U 20008AF  23025.70411323  .00000523  00000-0  14616-2 0  9999
2 45160  87.8801 282.3694 0001891  74.1747 285.9588 13.10370239146154
1 45160U 20008AF  23026.62040516  .00000580  00000-0  16250-2 0  9992
2 45160  87.8800 282.1866 0001925  72.6603 287.4735 13.10371356146279
1 45160U 20008AF  23027.23126502  .00000816  00000-0  23007-2 0  9990
2 45160  87.8800 282.0648 0001919  71.8607 288.2729 13.10372297146844
1 45160U 20008AF  23027.61305323  .00000683  00000-0  19200-2 0  9994
2 45160  87.8800 281.9887 0001914  71.8063 288.3273 13.10372421146404
1 45160U 20008AF  23027.76576770  .00000715  00000-0  20113-2 0  9997
2 45160  87.8801 281.9583 0001912  71.6385 288.4950 13.10373139146423
1 45160U 20008AF  23028.22391282  .00000695  00000-0  19544-2 0  9995
2 45160  87.8801 281.8670 0001907  71.1543 288.9791 13.10373084146487
1 45160U 20008AF  23028.75841451  .00000619  00000-0  17366-2 0  9997
2 45160  87.8801 281.7605 0001897  70.7149 289.4183 13.10374067146550
1 45160U 20008AF  23028.75841451  .00000619  00000-0  17366-2 0  9997
2 45160  87.8801 281.7605 0001897  70.7149 289.4183 13.10374067147045
1 45160U 20008AF  23029.75105881  .00000543  00000-0  15184-2 0  9990
2 45160  87.8797 281.5620 0002063  80.2685 279.8675 13.10375912146689
1 45160U 20008AF  23030.20920304  .00000513  00000-0  14332-2 0  9998
2 45160  87.8800 281.4712 0001842  69.1208 291.0116 13.10375541146747
1 45160U 20008AF  23030.20920304  .00000513  00000-0  14332-2 0  9998
2 45160  87.8800 281.4712 0001842  69.1208 291.0116 13.10375541147232
1 45160U 20008AF  23030.66734766  .00000264  00000-0  72008-3 0  9991
2 45160  87.8801 281.3800 0001821  69.6477 290.4846 13.10374936146802
1 45160U 20008AF  23031.12549008  .00000269  00000-0  73475-3 0  9990
2 45160  87.8801 281.2884 0001819  68.3400 291.7920 13.10376107146867
1 45160U 20008AF  23031.96541949 -.00000430  00000-0 -12685-2 0  9995
2 45160  87.8798 281.1212 0002020  73.0946 287.0403 13.10377904146971
